{"type":"FeatureCollection","features":[{"type":"Feature","properties":{"code":"975","chefLieu":"97502","nom":"Saint-Pierre-et-Miquelon","typeLiaison":"0","zone":"com","latitude":"46.8374544","longitude":"-56.2120555","slug":"saint-pierre-et-miquelon","name_fr":"Saint-Pierre-et-Miquelon","departement_count":"1","label_lat":47.040344,"label_lng":-56.332352,"label_source":"natural-earth","area_km2":242.114,"bbox_min_lng":-56.396596,"bbox_min_lat":46.752753,"bbox_max_lng":-56.144765,"bbox_max_lat":47.141262,"iso_3166_1":"PM"},"geometry":{"type":"MultiPolygon","coordinates":[[[[-56.15095,46.793647],[-56.156484,46.789252],[-56.160797,46.784369],[-56.163808,46.778876],[-56.165191,46.772528],[-56.150217,46.766913],[-56.144765,46.765692],[-56.16808,46.75727],[-56.19579,46.752753],[-56.221913,46.754625],[-56.240305,46.765692],[-56.218902,46.788275],[-56.207509,46.797838],[-56.191884,46.806627],[-56.180247,46.809556],[-56.161366,46.811591],[-56.147532,46.807847],[-56.15095,46.793647]]],[[[-56.273793,46.895453],[-56.235504,46.872016],[-56.249257,46.842271],[-56.289296,46.813788],[-56.346262,46.783596],[-56.35851,46.780748],[-56.370676,46.7862],[-56.377919,46.799018],[-56.375071,46.806952],[-56.375111,46.813951],[-56.391103,46.824042],[-56.396352,46.836371],[-56.379872,46.851508],[-56.342763,46.875556],[-56.328277,46.914944],[-56.336781,46.95425],[-56.384999,47.035631],[-56.388173,47.051825],[-56.391103,47.087836],[-56.396596,47.10399],[-56.395904,47.113593],[-56.387685,47.125393],[-56.377431,47.134263],[-56.366282,47.140204],[-56.354644,47.141262],[-56.342763,47.135647],[-56.361318,47.125963],[-56.371693,47.116156],[-56.371165,47.105902],[-56.357004,47.094672],[-56.340321,47.089057],[-56.304799,47.083157],[-56.253326,47.053697],[-56.251698,47.043891],[-56.252309,47.030219],[-56.256012,47.018012],[-56.269358,47.00845],[-56.273793,46.999091],[-56.280344,46.989691],[-56.29186,46.985419],[-56.297597,46.987535],[-56.300282,46.992255],[-56.301991,46.996975],[-56.305165,46.999091],[-56.312164,46.998358],[-56.329701,46.992255],[-56.343577,46.995917],[-56.350209,46.994615],[-56.350168,46.985419],[-56.345774,46.979926],[-56.339711,46.979071],[-56.333852,46.97956],[-56.325917,46.976467],[-56.320058,46.976386],[-56.31371,46.975653],[-56.308583,46.971747],[-56.306752,46.964993],[-56.309682,46.96015],[-56.313873,46.956692],[-56.316029,46.953803],[-56.316029,46.912787],[-56.311757,46.900133],[-56.301178,46.896308],[-56.273793,46.895453]]]]}},{"type":"Feature","properties":{"code":"977","chefLieu":"97701","nom":"Saint-Barthélemy","typeLiaison":"0","zone":"com","latitude":"17.8967693","longitude":"-62.825598","slug":"saint-barthelemy","name_fr":"Saint-Barthélemy","departement_count":"1","label_lat":17.901987,"label_lng":-62.833193,"label_source":"natural-earth","area_km2":24.501,"bbox_min_lng":-62.86734,"bbox_min_lat":17.881985,"bbox_max_lng":-62.791656,"bbox_max_lat":17.929145,"iso_3166_1":"BL"},"geometry":{"type":"Polygon","coordinates":[[[-62.838857,17.881985],[-62.850942,17.890448],[-62.861318,17.905422],[-62.86734,17.920396],[-62.866119,17.929145],[-62.857411,17.925035],[-62.791656,17.915473],[-62.79894,17.904486],[-62.810129,17.892279],[-62.823842,17.883246],[-62.838857,17.881985]]]}},{"type":"Feature","properties":{"code":"978","chefLieu":"97801","nom":"Saint-Martin","typeLiaison":"0","zone":"com","latitude":"18.0814066","longitude":"-63.0467131","slug":"saint-martin","name_fr":"Saint-Martin","departement_count":"1","label_lat":18.081302,"label_lng":-63.049399,"label_source":"natural-earth","area_km2":68.5,"bbox_min_lng":-63.14684,"bbox_min_lat":18.033391,"bbox_max_lng":-63.010732,"bbox_max_lat":18.122138,"iso_3166_1":"MF"},"geometry":{"type":"Polygon","coordinates":[[[-63.017569,18.033391],[-63.085886,18.058511],[-63.107004,18.06212],[-63.107004,18.066962],[-63.115305,18.065375],[-63.130523,18.060248],[-63.134348,18.059475],[-63.14387,18.064683],[-63.14684,18.070299],[-63.143625,18.074164],[-63.113759,18.074652],[-63.096099,18.078803],[-63.083811,18.087958],[-63.079091,18.104193],[-63.070872,18.110012],[-63.052113,18.116848],[-63.031402,18.121894],[-63.017649,18.122138],[-63.017934,18.100531],[-63.011098,18.070746],[-63.010732,18.040839],[-63.017569,18.033391]]]}},{"type":"Feature","properties":{"code":"984","chefLieu":"97502","nom":"Terres australes et antarctiques françaises","typeLiaison":"0","zone":"com","latitude":"-49.237442","longitude":"69.622759","slug":"terres-australes-et-antarctiques-francaises","name_fr":"Terres australes et antarctiques françaises","departement_count":"1","label_lat":-49.303721,"label_lng":69.122136,"label_source":"natural-earth","area_km2":7256.956,"bbox_min_lng":39.728282,"bbox_min_lat":-49.721612,"bbox_max_lng":77.585216,"bbox_max_lat":-11.550632,"iso_3166_1":"TF"},"geometry":{"type":"MultiPolygon","coordinates":[[[[42.751801,-17.076104],[42.724376,-17.063572],[42.738129,-17.057306],[42.7588,-17.060642],[42.751801,-17.076104]]],[[[69.945649,-49.542169],[69.928477,-49.541274],[69.916759,-49.53631],[69.90561,-49.528985],[69.891124,-49.521742],[69.875336,-49.517836],[69.84783,-49.514337],[69.835785,-49.507989],[69.835785,-49.501153],[69.879649,-49.492446],[69.920584,-49.497003],[69.972992,-49.535333],[70.004568,-49.551446],[70.016124,-49.564223],[70.007091,-49.576349],[69.993012,-49.57464],[69.945649,-49.542169]]],[[[68.795095,-49.34352],[68.786143,-49.357029],[68.773204,-49.363702],[68.757335,-49.363539],[68.739757,-49.356622],[68.68922,-49.356622],[68.665538,-49.352472],[68.643403,-49.34352],[68.662771,-49.322442],[68.673595,-49.316827],[68.691254,-49.315606],[68.708751,-49.318536],[68.741873,-49.328709],[68.759532,-49.329848],[68.791352,-49.323663],[68.79835,-49.327325],[68.795095,-49.34352]]],[[[69.589529,-49.19964],[69.575043,-49.20436],[69.560232,-49.206231],[69.546235,-49.202895],[69.53419,-49.192804],[69.641612,-49.154067],[69.678071,-49.151788],[69.678071,-49.158624],[69.655447,-49.168878],[69.641775,-49.191664],[69.624034,-49.208266],[69.589529,-49.19964]]],[[[69.192149,-48.986586],[69.198741,-48.975763],[69.208995,-48.968683],[69.220063,-48.962823],[69.22934,-48.955987],[69.263927,-48.921808],[69.284841,-48.90602],[69.312755,-48.892511],[69.342947,-48.88421],[69.370372,-48.88421],[69.358897,-48.905369],[69.327647,-48.923923],[69.315115,-48.938897],[69.397797,-48.928481],[69.411306,-48.928643],[69.406261,-48.943129],[69.394298,-48.958754],[69.380626,-48.972345],[69.370372,-48.980564],[69.335216,-48.997979],[69.321788,-49.010349],[69.325369,-49.024835],[69.334809,-49.043634],[69.322032,-49.053643],[69.299815,-49.060317],[69.31129,-49.069431],[69.222504,-49.094334],[69.205821,-49.086602],[69.205821,-49.035089],[69.202891,-49.021905],[69.193614,-48.993748],[69.192149,-48.986586]]],[[[69.226329,-48.857029],[69.230968,-48.877862],[69.241954,-48.876723],[69.246837,-48.880792],[69.243907,-48.890069],[69.236664,-48.894627],[69.227712,-48.89837],[69.218923,-48.904718],[69.209321,-48.918878],[69.194591,-48.948175],[69.177908,-48.969171],[69.166189,-48.978285],[69.153575,-48.983168],[69.143809,-48.980564],[69.137055,-48.971124],[69.139903,-48.968194],[69.151622,-48.933364],[69.150645,-48.932061],[69.162771,-48.906508],[69.180837,-48.881036],[69.20281,-48.862237],[69.226329,-48.857029]]],[[[69.465994,-48.88421],[69.446625,-48.876235],[69.428396,-48.864435],[69.413585,-48.84881],[69.40447,-48.829034],[69.437673,-48.829278],[69.486013,-48.855645],[69.519867,-48.857029],[69.512218,-48.87005],[69.499522,-48.878351],[69.483653,-48.882745],[69.465994,-48.88421]]],[[[70.548839,-49.183201],[70.568533,-49.219415],[70.556,-49.26686],[70.523692,-49.30755],[70.463878,-49.356622],[70.391775,-49.348728],[70.359386,-49.338067],[70.335948,-49.351821],[70.331309,-49.369073],[70.311534,-49.378513],[70.393809,-49.404067],[70.466482,-49.439142],[70.375662,-49.430352],[70.288341,-49.439142],[70.243419,-49.359959],[70.139903,-49.3388],[70.101329,-49.347589],[70.062755,-49.358494],[70.016368,-49.36004],[69.969981,-49.353204],[69.895356,-49.341485],[69.822276,-49.349786],[69.874848,-49.36712],[69.925304,-49.39129],[69.912852,-49.395685],[69.900401,-49.400079],[69.922537,-49.416599],[69.945649,-49.432306],[69.921397,-49.438897],[69.898448,-49.443129],[69.868907,-49.421808],[69.840668,-49.397231],[69.81544,-49.391534],[69.794932,-49.404474],[69.797374,-49.421319],[69.81544,-49.453383],[69.756196,-49.423028],[69.691905,-49.404474],[69.714529,-49.427667],[69.744151,-49.44199],[69.765961,-49.456638],[69.774099,-49.471612],[69.788585,-49.478936],[69.801768,-49.487563],[69.805431,-49.511407],[69.813813,-49.532485],[69.892833,-49.560235],[69.977712,-49.570571],[70.056977,-49.594659],[70.136974,-49.617852],[70.065278,-49.5735],[70.049083,-49.52044],[70.092621,-49.510431],[70.138357,-49.505629],[70.180024,-49.513442],[70.219981,-49.525974],[70.295909,-49.530369],[70.323985,-49.574477],[70.256684,-49.614841],[70.164806,-49.617852],[70.228363,-49.630304],[70.276052,-49.654067],[70.244314,-49.685479],[70.192393,-49.684828],[70.153656,-49.692641],[70.12322,-49.713556],[70.068044,-49.71502],[70.012706,-49.698907],[69.928722,-49.701593],[69.855642,-49.679132],[69.820649,-49.640802],[69.787934,-49.603692],[69.78297,-49.561619],[69.778575,-49.520278],[69.738536,-49.498793],[69.691905,-49.501153],[69.707205,-49.515313],[69.705577,-49.535333],[69.673106,-49.512628],[69.637218,-49.504571],[69.67213,-49.544529],[69.715017,-49.58172],[69.712413,-49.636977],[69.66391,-49.664972],[69.626801,-49.656834],[69.592296,-49.643976],[69.530935,-49.640802],[69.469737,-49.631443],[69.418956,-49.601658],[69.373383,-49.566095],[69.325857,-49.563165],[69.281016,-49.562677],[69.258067,-49.522068],[69.227387,-49.488458],[69.203624,-49.49627],[69.21225,-49.517267],[69.205333,-49.519464],[69.198416,-49.521742],[69.21811,-49.545668],[69.231944,-49.573012],[69.184093,-49.555352],[69.143809,-49.514337],[69.155772,-49.541762],[69.167247,-49.569594],[69.177989,-49.583754],[69.153819,-49.59881],[69.150645,-49.624119],[69.114513,-49.603123],[69.105805,-49.560317],[69.08546,-49.540297],[69.072276,-49.58172],[69.104015,-49.644301],[69.06658,-49.691013],[69.025645,-49.709893],[68.981944,-49.721612],[68.970958,-49.71738],[68.962901,-49.71266],[68.947032,-49.7138],[68.928233,-49.715427],[68.879568,-49.716485],[68.831716,-49.717218],[68.791026,-49.710056],[68.764496,-49.674981],[68.765636,-49.651137],[68.776622,-49.630548],[68.778168,-49.592462],[68.798839,-49.564711],[68.823904,-49.535089],[68.842784,-49.507989],[68.822439,-49.48447],[68.865245,-49.462335],[68.901703,-49.431085],[68.875255,-49.396905],[68.869151,-49.367934],[68.846934,-49.363377],[68.806488,-49.365818],[68.857188,-49.328302],[68.924083,-49.322442],[68.920665,-49.305271],[68.924083,-49.288263],[68.891856,-49.296482],[68.836111,-49.303399],[68.814789,-49.281427],[68.832042,-49.276625],[68.84962,-49.274672],[68.792817,-49.248142],[68.773774,-49.205743],[68.764334,-49.188897],[68.770356,-49.175714],[68.785981,-49.190118],[68.808604,-49.205743],[68.857758,-49.173761],[68.930919,-49.144952],[68.85434,-49.149021],[68.801117,-49.13128],[68.823985,-49.117934],[68.84962,-49.110772],[68.810557,-49.110447],[68.771983,-49.110772],[68.776215,-49.096856],[68.78061,-49.08294],[68.74879,-49.076755],[68.755544,-49.047621],[68.794688,-49.040785],[68.827403,-49.054132],[68.812999,-49.016697],[68.813243,-48.965102],[68.860606,-48.965753],[68.903087,-48.974705],[68.878673,-48.944594],[68.850352,-48.916436],[68.822927,-48.889093],[68.798106,-48.864516],[68.791759,-48.846287],[68.815278,-48.837986],[68.855724,-48.82171],[68.896821,-48.822849],[68.898123,-48.801365],[68.903005,-48.781345],[68.931326,-48.766209],[68.934744,-48.736423],[68.920665,-48.722833],[68.938324,-48.698663],[68.956798,-48.671482],[69.015636,-48.654555],[69.07545,-48.65838],[69.06072,-48.671075],[69.082286,-48.692478],[69.07545,-48.712986],[69.116466,-48.726658],[68.982921,-48.798517],[68.908214,-48.893976],[68.923106,-48.883966],[68.937266,-48.873305],[68.96046,-48.868748],[68.986095,-48.877374],[68.973643,-48.843357],[69.007498,-48.832778],[69.020274,-48.857029],[69.074229,-48.79046],[69.150645,-48.754571],[69.174327,-48.756606],[69.188813,-48.773045],[69.153575,-48.792576],[69.10906,-48.808526],[69.136567,-48.831476],[69.164317,-48.808526],[69.163748,-48.846124],[69.130707,-48.880792],[69.080577,-48.906427],[69.054454,-48.946384],[69.082286,-48.931248],[69.111501,-48.919122],[69.083751,-48.973403],[69.022227,-49.010186],[69.007498,-49.04754],[68.999766,-49.090427],[69.034353,-49.100356],[69.068126,-49.110772],[69.056895,-49.039158],[69.105724,-48.993422],[69.143728,-49.008396],[69.169119,-49.043552],[69.173676,-49.079522],[69.178477,-49.11061],[69.214529,-49.12127],[69.246593,-49.109633],[69.352061,-49.080987],[69.437999,-49.014581],[69.450938,-49.02988],[69.457367,-49.048517],[69.448741,-49.068943],[69.437673,-49.078871],[69.452485,-49.088962],[69.471528,-49.081231],[69.521332,-48.995375],[69.589529,-48.952569],[69.589122,-48.97975],[69.597911,-49.006036],[69.616059,-49.014581],[69.582042,-49.028253],[69.568207,-49.048761],[69.618012,-49.047947],[69.657725,-49.062433],[69.62615,-49.075779],[69.582042,-49.090427],[69.644054,-49.100274],[69.644054,-49.124444],[69.587169,-49.133396],[69.530772,-49.138116],[69.507986,-49.131036],[69.484874,-49.1242],[69.399913,-49.113702],[69.339854,-49.150323],[69.312266,-49.166925],[69.282481,-49.184259],[69.297048,-49.195245],[69.324067,-49.184259],[69.351817,-49.170831],[69.419932,-49.136895],[69.472179,-49.151788],[69.427257,-49.169203],[69.381033,-49.18255],[69.445486,-49.196222],[69.437755,-49.215102],[69.472179,-49.219985],[69.495942,-49.239679],[69.53419,-49.239923],[69.53419,-49.243748],[69.53419,-49.247328],[69.471934,-49.253839],[69.411306,-49.274672],[69.496104,-49.269789],[69.580821,-49.264825],[69.656505,-49.254002],[69.725922,-49.247328],[69.663829,-49.284275],[69.582042,-49.302016],[69.648936,-49.308852],[69.71225,-49.306817],[69.750987,-49.281345],[69.787934,-49.254164],[69.792328,-49.272231],[69.801768,-49.288263],[69.829438,-49.258722],[69.86085,-49.240411],[69.857432,-49.22324],[69.85377,-49.20908],[69.875255,-49.204522],[69.897797,-49.205743],[69.897472,-49.187433],[69.918142,-49.180271],[69.941254,-49.1749],[69.95574,-49.159438],[69.992931,-49.147068],[70.031749,-49.134698],[70.090017,-49.121026],[70.151134,-49.138116],[70.147309,-49.149021],[70.143077,-49.159356],[70.194021,-49.156915],[70.235199,-49.13242],[70.27296,-49.07643],[70.335948,-49.053969],[70.408214,-49.056329],[70.477061,-49.073337],[70.521983,-49.09588],[70.528575,-49.144952],[70.548839,-49.183201]]],[[[68.670746,-48.6242],[68.681488,-48.636407],[68.667979,-48.645278],[68.644054,-48.648614],[68.623057,-48.644138],[68.610118,-48.637628],[68.625987,-48.629815],[68.652354,-48.6242],[68.670746,-48.6242]]],[[[68.808604,-48.603692],[68.79005,-48.615899],[68.78004,-48.60475],[68.781016,-48.584568],[68.795095,-48.569024],[68.818614,-48.566664],[68.830821,-48.577407],[68.828624,-48.592706],[68.808604,-48.603692]]],[[[51.834158,-46.376642],[51.844574,-46.382745],[51.852794,-46.390558],[51.868175,-46.410252],[51.823497,-46.451267],[51.788748,-46.445896],[51.772146,-46.445245],[51.758311,-46.451267],[51.728526,-46.447442],[51.705577,-46.437595],[51.686778,-46.422459],[51.669607,-46.403985],[51.656505,-46.378351],[51.667491,-46.363539],[51.736013,-46.327407],[51.759532,-46.32936],[51.778087,-46.342869],[51.785655,-46.366143],[51.792979,-46.372328],[51.809093,-46.375258],[51.834158,-46.376642]]],[[[50.175548,-46.064711],[50.189708,-46.056817],[50.268077,-46.043715],[50.281423,-46.058038],[50.293142,-46.076349],[50.29835,-46.096449],[50.292247,-46.115981],[50.27768,-46.127048],[50.260753,-46.12713],[50.223318,-46.115981],[50.201182,-46.113458],[50.186371,-46.103204],[50.178071,-46.086602],[50.175548,-46.064711]]],[[[77.503754,-37.8235],[77.543956,-37.820245],[77.574718,-37.84352],[77.585216,-37.8742],[77.565278,-37.893162],[77.536632,-37.901137],[77.504649,-37.88242],[77.487559,-37.851658],[77.503754,-37.8235]]],[[[77.532888,-38.709161],[77.545258,-38.723403],[77.549327,-38.731134],[77.544688,-38.737481],[77.536143,-38.738458],[77.516368,-38.735447],[77.512462,-38.729913],[77.506521,-38.713149],[77.510916,-38.705743],[77.519054,-38.702407],[77.527517,-38.705743],[77.532888,-38.709161]]],[[[40.379731,-22.323907],[40.379161,-22.314874],[40.385509,-22.317804],[40.385997,-22.339451],[40.368663,-22.362563],[40.348888,-22.365492],[40.339122,-22.359633],[40.331798,-22.348077],[40.3296,-22.331231],[40.336436,-22.320489],[40.347992,-22.317071],[40.358653,-22.316013],[40.364268,-22.318943],[40.367198,-22.329685],[40.363455,-22.334893],[40.358572,-22.338637],[40.355235,-22.344985],[40.361095,-22.350844],[40.374034,-22.349705],[40.381684,-22.339044],[40.379731,-22.323907]]],[[[39.728282,-21.444594],[39.729096,-21.441908],[39.73113,-21.444187],[39.728282,-21.444594]]],[[[54.514496,-15.889581],[54.520925,-15.885186],[54.521332,-15.894057],[54.514496,-15.889581]]],[[[47.287934,-11.565525],[47.299571,-11.550632],[47.306407,-11.56992],[47.287934,-11.565525]]]]}},{"type":"Feature","properties":{"code":"986","chefLieu":"98613","nom":"Wallis et Futuna","typeLiaison":"0","zone":"com","latitude":"-13.289402","longitude":"-176.204224","slug":"wallis-et-futuna","name_fr":"Wallis et Futuna","departement_count":"1","label_lat":-14.286415,"label_lng":-178.137436,"label_source":"natural-earth","area_km2":139.85,"bbox_min_lng":-178.18574,"bbox_min_lat":-14.319431,"bbox_max_lng":-176.1256,"bbox_max_lat":-13.208917,"iso_3166_1":"WF"},"geometry":{"type":"MultiPolygon","coordinates":[[[[-178.142323,-14.243585],[-178.108144,-14.278985],[-178.105092,-14.285252],[-178.092478,-14.288995],[-178.046742,-14.312595],[-178.046742,-14.319431],[-178.100046,-14.316013],[-178.108835,-14.319431],[-178.121449,-14.313897],[-178.146921,-14.310154],[-178.156606,-14.305108],[-178.175242,-14.277032],[-178.18574,-14.248224],[-178.178049,-14.232599],[-178.142323,-14.243585]]],[[[-176.155466,-13.208917],[-176.143015,-13.230727],[-176.130564,-13.247654],[-176.1256,-13.264093],[-176.13561,-13.284763],[-176.132151,-13.288507],[-176.130564,-13.291192],[-176.128163,-13.298272],[-176.14448,-13.300877],[-176.147654,-13.310479],[-176.141835,-13.33587],[-176.147165,-13.347752],[-176.159495,-13.350274],[-176.173207,-13.346449],[-176.18281,-13.339288],[-176.183909,-13.323826],[-176.194773,-13.306736],[-176.199574,-13.290623],[-176.18281,-13.277927],[-176.190175,-13.257013],[-176.184031,-13.237888],[-176.1704,-13.221449],[-176.155466,-13.208917]]]]}},{"type":"Feature","properties":{"code":"987","chefLieu":"98735","nom":"Polynésie française","typeLiaison":"0","zone":"com","latitude":"-17.0243749","longitude":"-144.6434898","slug":"polynesie-francaise","name_fr":"Polynésie française","departement_count":"1","label_lat":-17.628081,"label_lng":-149.46157,"label_source":"natural-earth","area_km2":3348.224,"bbox_min_lng":-154.536977,"bbox_min_lat":-27.641209,"bbox_max_lng":-134.942983,"bbox_max_lat":-7.950128,"iso_3166_1":"PF"},"geometry":{"type":"MultiPolygon","coordinates":[[[[-136.165761,-22.024347],[-136.175689,-22.02988],[-136.185862,-22.034438],[-136.163564,-22.013604],[-136.163889,-22.016371],[-136.165761,-22.024347]]],[[[-136.377187,-21.468357],[-136.386342,-21.463637],[-136.395823,-21.462823],[-136.405019,-21.465427],[-136.413401,-21.471368],[-136.404937,-21.460219],[-136.391469,-21.45615],[-136.379872,-21.45908],[-136.377187,-21.468357]]],[[[-136.549387,-21.336847],[-136.532216,-21.331313],[-136.525706,-21.338067],[-136.529449,-21.349867],[-136.543121,-21.359796],[-136.53425,-21.348891],[-136.535715,-21.34238],[-136.542388,-21.3388],[-136.549387,-21.336847]]],[[[-136.63622,-21.341567],[-136.646799,-21.327244],[-136.651601,-21.322931],[-136.64391,-21.322849],[-136.639882,-21.32643],[-136.637929,-21.333103],[-136.63622,-21.341567]]],[[[-136.734364,-21.312107],[-136.739166,-21.308526],[-136.742258,-21.304457],[-136.745758,-21.303399],[-136.752187,-21.308526],[-136.745961,-21.299493],[-136.738637,-21.299493],[-136.73233,-21.306248],[-136.729115,-21.318048],[-136.731272,-21.317315],[-136.732167,-21.315688],[-136.732818,-21.313897],[-136.734364,-21.312107]]],[[[-140.413971,-19.61419],[-140.407379,-19.610121],[-140.395172,-19.615411],[-140.383168,-19.625421],[-140.377024,-19.636326],[-140.379058,-19.648614],[-140.387359,-19.656996],[-140.399281,-19.661716],[-140.412424,-19.663832],[-140.39684,-19.651056],[-140.386627,-19.640313],[-140.389801,-19.628839],[-140.413971,-19.61419]]],[[[-139.20226,-19.350681],[-139.204091,-19.346124],[-139.205068,-19.341485],[-139.207672,-19.337335],[-139.214833,-19.334568],[-139.202952,-19.334893],[-139.195912,-19.340916],[-139.195912,-19.349786],[-139.20519,-19.359145],[-139.20226,-19.350681]]],[[[-138.796742,-19.290297],[-138.805979,-19.288832],[-138.809397,-19.287286],[-138.812123,-19.283787],[-138.802398,-19.281996],[-138.794586,-19.281671],[-138.791737,-19.283868],[-138.796742,-19.290297]]],[[[-141.266184,-19.203546],[-141.252349,-19.189711],[-141.237172,-19.193617],[-141.227528,-19.208429],[-141.230377,-19.227146],[-141.233713,-19.211684],[-141.242787,-19.202244],[-141.25475,-19.199395],[-141.266184,-19.203546]]],[[[-140.721832,-19.133722],[-140.696197,-19.119317],[-140.670155,-19.131768],[-140.660878,-19.152439],[-140.685862,-19.161554],[-140.670033,-19.142755],[-140.681386,-19.132257],[-140.703969,-19.129327],[-140.721832,-19.133722]]],[[[-138.801584,-18.765232],[-138.795237,-18.770929],[-138.793324,-18.774021],[-138.793202,-18.778904],[-138.829742,-18.759942],[-138.822865,-18.760349],[-138.815745,-18.761407],[-138.801584,-18.765232]]],[[[-143.092112,-17.853285],[-143.080881,-17.837579],[-143.072255,-17.840427],[-143.059885,-17.865818],[-143.060292,-17.867771],[-143.064849,-17.863702],[-143.070221,-17.855157],[-143.072825,-17.844334],[-143.077626,-17.852227],[-143.082387,-17.857517],[-143.087148,-17.858494],[-143.092112,-17.853285]]],[[[-150.655263,-17.668715],[-150.643178,-17.65545],[-150.64033,-17.666111],[-150.644968,-17.677992],[-150.655263,-17.668715]]],[[[-141.438547,-17.368097],[-141.442494,-17.360121],[-141.453847,-17.352309],[-141.467437,-17.34881],[-141.481842,-17.348565],[-141.460764,-17.344822],[-141.44518,-17.351739],[-141.436269,-17.367364],[-141.436065,-17.370701],[-141.435333,-17.383559],[-141.434967,-17.389337],[-141.436838,-17.385837],[-141.436838,-17.382745],[-141.438547,-17.368097]]],[[[-138.441721,-17.366388],[-138.461415,-17.365655],[-138.46349,-17.359959],[-138.463735,-17.356948],[-138.460927,-17.350356],[-138.446929,-17.332696],[-138.426137,-17.324884],[-138.454905,-17.349786],[-138.458811,-17.356866],[-138.457834,-17.358819],[-138.453684,-17.359552],[-138.447743,-17.361586],[-138.441721,-17.366388]]],[[[-143.084828,-17.004571],[-143.093821,-16.997979],[-143.097727,-16.994317],[-143.101226,-16.990167],[-143.090403,-16.989516],[-143.079823,-16.993341],[-143.07018,-17.000177],[-143.062001,-17.008966],[-143.067535,-17.010024],[-143.07315,-17.009373],[-143.078928,-17.00742],[-143.084828,-17.004571]]],[[[-149.583608,-16.987074],[-149.575917,-16.983657],[-149.572092,-16.982599],[-149.568227,-16.982192],[-149.572336,-16.9874],[-149.586863,-17.000421],[-149.586985,-16.996677],[-149.58613,-16.993585],[-149.583608,-16.987074]]],[[[-153.93399,-16.79754],[-153.928538,-16.806899],[-153.9228,-16.820896],[-153.920155,-16.83172],[-153.924265,-16.831801],[-153.933217,-16.819106],[-153.943227,-16.78753],[-153.950673,-16.773858],[-153.942983,-16.774591],[-153.937734,-16.779474],[-153.934763,-16.787367],[-153.93399,-16.79754]]],[[[-144.200673,-16.64837],[-144.19811,-16.642185],[-144.18814,-16.645685],[-144.176666,-16.655369],[-144.169586,-16.66725],[-144.177846,-16.663751],[-144.185902,-16.659356],[-144.200673,-16.64837]]],[[[-152.2447,-16.44378],[-152.256296,-16.451267],[-152.263621,-16.447198],[-152.261464,-16.441502],[-152.2447,-16.44378]]],[[[-145.898915,-15.888116],[-145.95051,-15.839614],[-145.914296,-15.863539],[-145.89859,-15.878351],[-145.898915,-15.888116]]],[[[-140.888987,-15.819757],[-140.86144,-15.815525],[-140.852366,-15.815525],[-140.859853,-15.81992],[-140.879709,-15.838311],[-140.889027,-15.837335],[-140.895009,-15.83294],[-140.895619,-15.826837],[-140.888987,-15.819757]]],[[[-148.250844,-15.867446],[-148.271718,-15.853204],[-148.279368,-15.830499],[-148.275583,-15.809991],[-148.262074,-15.802423],[-148.257639,-15.807875],[-148.246165,-15.831638],[-148.239003,-15.839614],[-148.229929,-15.848077],[-148.230784,-15.856866],[-148.238718,-15.863946],[-148.250844,-15.867446]]],[[[-146.486643,-15.803399],[-146.482655,-15.814874],[-146.481679,-15.820571],[-146.481923,-15.826918],[-146.49059,-15.808282],[-146.496165,-15.799493],[-146.503041,-15.791681],[-146.49885,-15.794041],[-146.486643,-15.803399]]],[[[-154.523183,-15.819431],[-154.520619,-15.808526],[-154.522084,-15.80047],[-154.527537,-15.794854],[-154.536977,-15.79225],[-154.52477,-15.789321],[-154.519114,-15.795587],[-154.517283,-15.80641],[-154.516347,-15.817315],[-154.519236,-15.823419],[-154.525461,-15.827732],[-154.528798,-15.827244],[-154.523183,-15.819431]]],[[[-144.64981,-15.730157],[-144.632802,-15.728448],[-144.621938,-15.736017],[-144.620432,-15.747003],[-144.631337,-15.755304],[-144.641916,-15.755141],[-144.648915,-15.749282],[-144.651723,-15.740167],[-144.64981,-15.730157]]],[[[-145.455881,-15.479587],[-145.443959,-15.479669],[-145.435414,-15.483005],[-145.432688,-15.488539],[-145.437856,-15.496352],[-145.457346,-15.481703],[-145.523915,-15.470473],[-145.549631,-15.452081],[-145.481516,-15.474786],[-145.455881,-15.479587]]],[[[-146.194163,-15.35947],[-146.202992,-15.388849],[-146.198638,-15.369806],[-146.196156,-15.347589],[-146.198313,-15.338718],[-146.203603,-15.331476],[-146.207428,-15.328627],[-146.217193,-15.323663],[-146.213979,-15.323093],[-146.204986,-15.327732],[-146.200551,-15.329685],[-146.196685,-15.335626],[-146.192779,-15.346287],[-146.194163,-15.35947]]],[[[-146.620839,-15.239841],[-146.639027,-15.232599],[-146.62385,-15.23504],[-146.611724,-15.24391],[-146.602935,-15.256931],[-146.597768,-15.27158],[-146.610097,-15.256443],[-146.620839,-15.239841]]],[[[-147.256256,-15.232517],[-147.242258,-15.232354],[-147.238515,-15.235284],[-147.237416,-15.244236],[-147.241811,-15.239028],[-147.246205,-15.236749],[-147.250885,-15.23504],[-147.256256,-15.232517]]],[[[-147.778961,-15.216404],[-147.774078,-15.213474],[-147.763417,-15.219415],[-147.749989,-15.228692],[-147.737131,-15.235284],[-147.778961,-15.216404]]],[[[-147.458974,-15.121352],[-147.512034,-15.080011],[-147.530873,-15.069024],[-147.510854,-15.077895],[-147.492502,-15.091078],[-147.458974,-15.121352]]],[[[-147.931956,-15.080824],[-147.934316,-15.076918],[-147.936676,-15.073907],[-147.937815,-15.070896],[-147.936594,-15.066339],[-147.931956,-15.080824]]],[[[-145.922434,-14.43377],[-145.932769,-14.438409],[-145.943715,-14.441827],[-145.954905,-14.443536],[-145.966176,-14.443129],[-145.933217,-14.437595],[-145.922434,-14.43377]]],[[[-141.17455,-14.18963],[-141.179514,-14.196466],[-141.18928,-14.190199],[-141.212799,-14.164972],[-141.202748,-14.17018],[-141.17455,-14.18963]]],[[[-147.724233,-23.871759],[-147.724233,-23.864923],[-147.705881,-23.858575],[-147.687978,-23.854587],[-147.647857,-23.851821],[-147.651235,-23.858575],[-147.655873,-23.863865],[-147.661773,-23.868097],[-147.668935,-23.871759],[-147.698964,-23.878025],[-147.712636,-23.877211],[-147.724233,-23.871759]]],[[[-149.481679,-23.357843],[-149.456492,-23.36533],[-149.450917,-23.381117],[-149.463246,-23.395766],[-149.507802,-23.400486],[-149.518748,-23.394952],[-149.52477,-23.383966],[-149.526723,-23.368097],[-149.521433,-23.362726],[-149.508901,-23.359552],[-149.481679,-23.357843]]],[[[-135.019358,-23.117608],[-134.997955,-23.116306],[-134.965484,-23.090509],[-134.942983,-23.083591],[-134.950551,-23.096938],[-134.984527,-23.138767],[-134.995229,-23.13714],[-135.004547,-23.133884],[-135.019358,-23.125095],[-135.019358,-23.117608]]],[[[-151.386871,-22.422459],[-151.377675,-22.423272],[-151.367502,-22.434177],[-151.359242,-22.447524],[-151.355906,-22.456638],[-151.357493,-22.481703],[-151.362742,-22.508071],[-151.368723,-22.513116],[-151.371775,-22.514418],[-151.376332,-22.514337],[-151.380442,-22.488702],[-151.391103,-22.464532],[-151.397043,-22.442153],[-151.386871,-22.422459]]],[[[-140.671946,-21.658949],[-140.653188,-21.647068],[-140.634185,-21.660821],[-140.603668,-21.706801],[-140.630523,-21.721612],[-140.658274,-21.71266],[-140.675771,-21.688897],[-140.671946,-21.658949]]],[[[-140.678782,-17.780369],[-140.727162,-17.807061],[-140.758046,-17.831638],[-140.785227,-17.858575],[-140.795969,-17.862726],[-140.812123,-17.863051],[-140.827789,-17.860121],[-140.837026,-17.85475],[-140.838694,-17.843438],[-140.834299,-17.830011],[-140.822743,-17.807061],[-140.802317,-17.786554],[-140.78246,-17.751642],[-140.745839,-17.729587],[-140.671946,-17.697849],[-140.652089,-17.684177],[-140.624664,-17.68727],[-140.619862,-17.70672],[-140.628489,-17.728448],[-140.648305,-17.74391],[-140.678782,-17.780369]]],[[[-149.183461,-17.731215],[-149.160634,-17.756931],[-149.149119,-17.802016],[-149.156443,-17.846287],[-149.190297,-17.869073],[-149.20641,-17.866632],[-149.260854,-17.851739],[-149.27595,-17.844903],[-149.308665,-17.803643],[-149.334299,-17.75921],[-149.343455,-17.724867],[-149.347971,-17.718194],[-149.357533,-17.717869],[-149.362538,-17.725274],[-149.3662,-17.734308],[-149.371816,-17.738702],[-149.391916,-17.741388],[-149.450388,-17.75921],[-149.472035,-17.760512],[-149.487864,-17.757989],[-149.519236,-17.746189],[-149.576121,-17.737563],[-149.587514,-17.731215],[-149.605051,-17.671808],[-149.611765,-17.663018],[-149.621205,-17.656183],[-149.630971,-17.639337],[-149.638661,-17.61891],[-149.642161,-17.600844],[-149.632761,-17.553399],[-149.604319,-17.525811],[-149.564076,-17.510024],[-149.519236,-17.498468],[-149.474965,-17.494073],[-149.429514,-17.50156],[-149.387644,-17.517999],[-149.354115,-17.540134],[-149.344065,-17.550714],[-149.335561,-17.56406],[-149.329661,-17.579848],[-149.327463,-17.597833],[-149.330271,-17.663751],[-149.327463,-17.684177],[-149.303944,-17.712091],[-149.263295,-17.722833],[-149.183461,-17.731215]]],[[[-149.796702,-17.464451],[-149.786122,-17.468927],[-149.785634,-17.479181],[-149.804758,-17.52337],[-149.822458,-17.549737],[-149.842763,-17.56756],[-149.861887,-17.566827],[-149.885203,-17.555352],[-149.914052,-17.535333],[-149.937489,-17.512465],[-149.944407,-17.492364],[-149.934071,-17.481541],[-149.915517,-17.473565],[-149.897776,-17.472263],[-149.889841,-17.481541],[-149.885854,-17.491795],[-149.877634,-17.491957],[-149.869985,-17.487726],[-149.868113,-17.484959],[-149.860219,-17.483168],[-149.853627,-17.479181],[-149.845815,-17.47796],[-149.834584,-17.484959],[-149.831654,-17.472752],[-149.82311,-17.466567],[-149.810862,-17.464614],[-149.796702,-17.464451]]],[[[-151.005808,-16.76922],[-151.00239,-16.760837],[-150.994333,-16.761895],[-150.985341,-16.76922],[-150.979115,-16.779718],[-150.978383,-16.788018],[-150.979563,-16.800388],[-150.983876,-16.809259],[-150.992787,-16.807061],[-150.994822,-16.813572],[-150.998891,-16.817966],[-151.004994,-16.820408],[-151.013254,-16.820733],[-151.031361,-16.806329],[-151.037587,-16.799574],[-151.039906,-16.789972],[-151.034617,-16.777032],[-151.022898,-16.772882],[-151.011098,-16.772149],[-151.005808,-16.76922]]],[[[-151.478749,-16.738214],[-151.46467,-16.736423],[-151.446523,-16.740492],[-151.430776,-16.747817],[-151.424143,-16.755304],[-151.41279,-16.779718],[-151.352488,-16.858575],[-151.364084,-16.866469],[-151.400868,-16.885349],[-151.41393,-16.88893],[-151.424265,-16.881931],[-151.429392,-16.881931],[-151.431589,-16.892185],[-151.434153,-16.897638],[-151.440541,-16.901137],[-151.449167,-16.902927],[-151.458241,-16.902602],[-151.477895,-16.889581],[-151.488108,-16.856378],[-151.49474,-16.764581],[-151.4912,-16.750258],[-151.478749,-16.738214]]],[[[-151.026275,-16.708103],[-151.007558,-16.740492],[-151.009511,-16.745701],[-151.016347,-16.748712],[-151.024159,-16.755629],[-151.034169,-16.762628],[-151.047434,-16.766046],[-151.053212,-16.753595],[-151.054026,-16.741795],[-151.051503,-16.730076],[-151.042226,-16.705499],[-151.035146,-16.694268],[-151.029001,-16.692478],[-151.026275,-16.708103]]],[[[-151.458241,-16.629002],[-151.459828,-16.661065],[-151.463246,-16.674086],[-151.472605,-16.669854],[-151.48054,-16.664972],[-151.534657,-16.641697],[-151.540395,-16.636489],[-151.540883,-16.631036],[-151.536122,-16.594903],[-151.523752,-16.58294],[-151.502675,-16.580173],[-151.472605,-16.580499],[-151.476552,-16.590509],[-151.478749,-16.594171],[-151.459584,-16.593438],[-151.449574,-16.594659],[-151.445261,-16.597589],[-151.443959,-16.602227],[-151.43871,-16.609308],[-151.437815,-16.614679],[-151.441151,-16.619806],[-151.448191,-16.6242],[-151.458241,-16.629002]]],[[[-151.780426,-16.478123],[-151.763783,-16.472345],[-151.753611,-16.483819],[-151.748362,-16.504327],[-151.746938,-16.525974],[-151.762644,-16.525811],[-151.776845,-16.511814],[-151.784495,-16.492934],[-151.780426,-16.478123]]],[[[-146.387278,-16.108168],[-146.359364,-16.100193],[-146.337717,-16.113377],[-146.328765,-16.137628],[-146.338857,-16.162774],[-146.367096,-16.158787],[-146.391754,-16.147231],[-146.402089,-16.129978],[-146.387278,-16.108168]]],[[[-138.698801,-10.426446],[-138.665191,-10.427341],[-138.650461,-10.43141],[-138.636708,-10.440606],[-138.620432,-10.471856],[-138.620229,-10.510837],[-138.636952,-10.542169],[-138.671498,-10.55047],[-138.685618,-10.542087],[-138.69343,-10.526137],[-138.694447,-10.507908],[-138.679596,-10.473565],[-138.68163,-10.458266],[-138.698801,-10.426446]]],[[[-139.082387,-9.899509],[-139.069163,-9.903904],[-139.055653,-9.913181],[-139.04776,-9.92254],[-139.05134,-9.92669],[-139.055002,-9.928399],[-139.057607,-9.932387],[-139.059722,-9.937107],[-139.061879,-9.940362],[-139.06664,-9.943292],[-139.07665,-9.944594],[-139.082387,-9.947198],[-139.095855,-9.961684],[-139.118479,-10.000177],[-139.130767,-10.014907],[-139.14387,-9.997817],[-139.14269,-9.978936],[-139.138987,-9.959405],[-139.144439,-9.940362],[-139.13386,-9.928318],[-139.120676,-9.904392],[-139.103831,-9.888279],[-139.082387,-9.899509]]],[[[-138.836578,-9.741143],[-138.814036,-9.739516],[-138.818471,-9.748712],[-138.869252,-9.791599],[-138.892079,-9.800714],[-138.916615,-9.806573],[-138.955678,-9.809991],[-139.009429,-9.809015],[-139.020904,-9.806329],[-139.026235,-9.803399],[-139.037994,-9.802423],[-139.049713,-9.803481],[-139.055043,-9.806329],[-139.055043,-9.837335],[-139.06192,-9.853936],[-139.07136,-9.85475],[-139.08552,-9.84881],[-139.126291,-9.840102],[-139.143463,-9.828871],[-139.15689,-9.815199],[-139.164906,-9.803318],[-139.170318,-9.790134],[-139.173248,-9.774184],[-139.169423,-9.761],[-139.138417,-9.750909],[-139.051381,-9.70143],[-139.01537,-9.694431],[-138.984527,-9.699477],[-138.972524,-9.720636],[-138.961293,-9.733819],[-138.942738,-9.742364],[-138.921213,-9.747166],[-138.900787,-9.74863],[-138.876943,-9.754327],[-138.866689,-9.755466],[-138.855458,-9.753513],[-138.848012,-9.748956],[-138.842356,-9.744236],[-138.836578,-9.741143]]],[[[-140.076731,-9.323419],[-140.053863,-9.346287],[-140.041412,-9.351007],[-140.027699,-9.343927],[-140.040639,-9.374119],[-140.04894,-9.408136],[-140.062896,-9.435968],[-140.092844,-9.447524],[-140.111399,-9.437758],[-140.158599,-9.37184],[-140.139475,-9.357843],[-140.121449,-9.340265],[-140.101633,-9.326267],[-140.076731,-9.323419]]],[[[-139.514394,-8.883966],[-139.503163,-8.899021],[-139.508412,-8.912042],[-139.523427,-8.921563],[-139.541656,-8.926202],[-139.585601,-8.929457],[-139.603098,-8.936944],[-139.61677,-8.954197],[-139.612701,-8.939223],[-139.618031,-8.924981],[-139.62621,-8.910821],[-139.630442,-8.89544],[-139.596913,-8.858005],[-139.589467,-8.858005],[-139.582346,-8.86891],[-139.574452,-8.870212],[-139.55842,-8.864679],[-139.546986,-8.86712],[-139.514394,-8.883966]]],[[[-140.049428,-8.823175],[-140.022288,-8.846775],[-140.015981,-8.859308],[-140.014027,-8.881117],[-140.019154,-8.896417],[-140.031321,-8.894464],[-140.055572,-8.878513],[-140.060536,-8.899998],[-140.07665,-8.915216],[-140.096018,-8.919041],[-140.110219,-8.905694],[-140.117665,-8.905694],[-140.129994,-8.916436],[-140.169911,-8.929457],[-140.178538,-8.936782],[-140.183217,-8.953709],[-140.194325,-8.950372],[-140.207021,-8.939386],[-140.227691,-8.927016],[-140.234771,-8.912856],[-140.245188,-8.866876],[-140.247426,-8.847345],[-140.249582,-8.838637],[-140.258941,-8.830499],[-140.261057,-8.823175],[-140.247792,-8.786879],[-140.216705,-8.78102],[-140.089711,-8.802016],[-140.05899,-8.802016],[-140.051422,-8.80047],[-140.037424,-8.79225],[-140.027699,-8.788995],[-140.02774,-8.793715],[-140.02953,-8.796482],[-140.032216,-8.798761],[-140.039418,-8.807061],[-140.049428,-8.823175]]],[[[-140.692454,-8.015069],[-140.698883,-8.028985],[-140.707834,-8.039727],[-140.717763,-8.041274],[-140.727162,-8.02809],[-140.727773,-7.991469],[-140.70637,-7.963067],[-140.673166,-7.950128],[-140.638417,-7.959731],[-140.653066,-7.970798],[-140.658315,-7.973403],[-140.675649,-7.976739],[-140.683909,-7.985284],[-140.692454,-8.015069]]],[[[-144.283762,-27.579197],[-144.288238,-27.584242],[-144.30134,-27.595392],[-144.304189,-27.599705],[-144.303538,-27.600518],[-144.300282,-27.62005],[-144.297434,-27.620782],[-144.304433,-27.63242],[-144.312734,-27.640069],[-144.323638,-27.641209],[-144.338368,-27.633722],[-144.346588,-27.61533],[-144.347971,-27.585545],[-144.339426,-27.559259],[-144.31786,-27.551202],[-144.298166,-27.562921],[-144.289947,-27.570082],[-144.283762,-27.579197]]],[[[-138.849599,-21.87127],[-138.9322,-21.87127],[-138.911855,-21.863946],[-138.891591,-21.865899],[-138.870961,-21.870375],[-138.849599,-21.87127]]],[[[-135.457509,-21.528009],[-135.525787,-21.487074],[-135.503774,-21.489516],[-135.484934,-21.49684],[-135.46935,-21.509454],[-135.457509,-21.528009]]],[[[-138.534901,-20.876886],[-138.519439,-20.860935],[-138.517323,-20.849216],[-138.54072,-20.789727],[-138.544667,-20.784682],[-138.55012,-20.782566],[-138.56843,-20.788181],[-138.56428,-20.784845],[-138.554351,-20.780938],[-138.548899,-20.779962],[-138.542633,-20.780369],[-138.519765,-20.814548],[-138.512847,-20.85768],[-138.534901,-20.876886]]],[[[-136.314076,-18.567315],[-136.313547,-18.565606],[-136.312734,-18.560968],[-136.3131,-18.554295],[-136.31607,-18.546319],[-136.322133,-18.538751],[-136.331288,-18.532647],[-136.343658,-18.527439],[-136.373891,-18.51865],[-136.382965,-18.514744],[-136.389027,-18.510186],[-136.394276,-18.504083],[-136.402659,-18.496677],[-136.448883,-18.471856],[-136.461252,-18.468683],[-136.465443,-18.474298],[-136.465199,-18.48211],[-136.464263,-18.486017],[-136.467763,-18.481866],[-136.46996,-18.477797],[-136.47289,-18.474298],[-136.478586,-18.471856],[-136.45873,-18.464288],[-136.426137,-18.475356],[-136.395823,-18.494236],[-136.382395,-18.509942],[-136.330434,-18.527602],[-136.304758,-18.545668],[-136.314076,-18.567315]]],[[[-140.671946,-18.417169],[-140.674835,-18.413751],[-140.680979,-18.402276],[-140.695139,-18.390395],[-140.752065,-18.363946],[-140.77009,-18.350274],[-140.779286,-18.339532],[-140.781809,-18.335219],[-140.756174,-18.353692],[-140.687082,-18.390558],[-140.678619,-18.403009],[-140.671946,-18.417169]]],[[[-136.971425,-18.361912],[-137.067616,-18.26629],[-137.042348,-18.277602],[-137.010243,-18.304376],[-136.982777,-18.33587],[-136.971425,-18.361912]]],[[[-140.822743,-18.21795],[-140.848378,-18.18255],[-140.895497,-18.149021],[-140.91804,-18.108168],[-140.930287,-18.095636],[-140.973622,-18.060235],[-140.964467,-18.066583],[-140.92516,-18.084731],[-140.898508,-18.129083],[-140.877309,-18.150567],[-140.851308,-18.169529],[-140.829945,-18.190362],[-140.822743,-18.21795]]],[[[-142.577463,-17.621352],[-142.565175,-17.601658],[-142.639516,-17.532647],[-142.612457,-17.54697],[-142.577626,-17.57171],[-142.558176,-17.599216],[-142.577463,-17.621352]]],[[[-143.413564,-17.456964],[-143.437856,-17.438897],[-143.474965,-17.430271],[-143.456614,-17.429295],[-143.437652,-17.433201],[-143.422027,-17.442153],[-143.413564,-17.456964]]],[[[-145.380483,-17.484959],[-145.435129,-17.417169],[-145.419423,-17.426935],[-145.405588,-17.442966],[-145.380483,-17.484959]]],[[[-145.578481,-17.383071],[-145.586497,-17.370375],[-145.591379,-17.35768],[-145.593414,-17.343032],[-145.592885,-17.324802],[-145.578481,-17.383071]]],[[[-143.38622,-16.669854],[-143.45401,-16.624607],[-143.506174,-16.62713],[-143.550689,-16.622166],[-143.464752,-16.614679],[-143.440582,-16.620782],[-143.420277,-16.635675],[-143.38622,-16.669854]]],[[[-143.571156,-16.635837],[-143.620351,-16.632013],[-143.660064,-16.602227],[-143.701527,-16.580499],[-143.666249,-16.588474],[-143.609527,-16.629978],[-143.571156,-16.635837]]],[[[-143.817616,-16.539646],[-143.821441,-16.537693],[-143.848744,-16.492934],[-143.879791,-16.469415],[-143.913971,-16.457371],[-143.934234,-16.450291],[-143.930328,-16.449965],[-143.910349,-16.455336],[-143.877512,-16.459731],[-143.861969,-16.467218],[-143.832753,-16.498468],[-143.822987,-16.516371],[-143.817616,-16.539646]]],[[[-144.256459,-16.478123],[-144.258656,-16.457696],[-144.260854,-16.45086],[-144.291168,-16.416111],[-144.275706,-16.425551],[-144.260121,-16.442315],[-144.251332,-16.461358],[-144.256459,-16.478123]]],[[[-144.373118,-16.340427],[-144.406117,-16.329197],[-144.426015,-16.332778],[-144.43456,-16.31992],[-144.428334,-16.320571],[-144.427154,-16.322442],[-144.427724,-16.326593],[-144.412221,-16.321222],[-144.396148,-16.324477],[-144.382314,-16.332289],[-144.373118,-16.340427]]],[[[-145.482289,-16.347833],[-145.502268,-16.336602],[-145.529612,-16.279474],[-145.553131,-16.25213],[-145.576772,-16.202569],[-145.590403,-16.151625],[-145.606557,-16.129327],[-145.613881,-16.080255],[-145.610951,-16.097345],[-145.603586,-16.120294],[-145.593373,-16.140395],[-145.582183,-16.149102],[-145.577138,-16.160821],[-145.568267,-16.212579],[-145.562082,-16.224298],[-145.559193,-16.233005],[-145.517079,-16.278904],[-145.493967,-16.335219],[-145.482289,-16.347833]]],[[[-145.613881,-16.052911],[-145.708852,-16.060479],[-145.657582,-16.042576],[-145.631256,-16.038344],[-145.613881,-16.052911]]],[[[-142.529652,-16.108168],[-142.522084,-16.084161],[-142.509755,-16.059015],[-142.495269,-16.03631],[-142.481272,-16.018813],[-142.529652,-16.108168]]],[[[-140.110219,-15.977227],[-140.117177,-15.961684],[-140.143219,-15.960545],[-140.172271,-15.977227],[-140.151682,-15.957696],[-140.125478,-15.953302],[-140.107086,-15.960626],[-140.110219,-15.977227]]],[[[-145.167592,-15.950453],[-145.235911,-15.888442],[-145.21996,-15.89837],[-145.167592,-15.950453]]],[[[-145.057729,-15.902114],[-145.076487,-15.858657],[-145.129872,-15.778009],[-145.160756,-15.758071],[-145.133616,-15.763116],[-145.117543,-15.780694],[-145.092519,-15.826349],[-145.067006,-15.856378],[-145.058705,-15.875909],[-145.057729,-15.902114]]],[[[-148.045766,-14.997735],[-148.054311,-14.984633],[-148.066274,-14.971124],[-148.08434,-14.955011],[-148.110707,-14.940362],[-148.176096,-14.922052],[-148.134104,-14.925226],[-148.08906,-14.936782],[-148.055002,-14.959893],[-148.045766,-14.997735]]],[[[-148.628,-14.894708],[-148.647939,-14.871759],[-148.690663,-14.853774],[-148.667714,-14.856622],[-148.640574,-14.864923],[-148.622751,-14.877862],[-148.628,-14.894708]]],[[[-145.194936,-14.662042],[-145.205434,-14.675226],[-145.222971,-14.688409],[-145.242787,-14.698419],[-145.260406,-14.702325],[-145.263905,-14.690118],[-145.253245,-14.663181],[-145.229644,-14.620375],[-145.249827,-14.670668],[-145.254791,-14.693292],[-145.23351,-14.688246],[-145.194936,-14.662042]]],[[[-146.256907,-14.497491],[-146.245758,-14.476007],[-146.239491,-14.455824],[-146.271148,-14.435479],[-146.243276,-14.439223],[-146.23176,-14.456801],[-146.236318,-14.479181],[-146.256907,-14.497491]]],[[[-145.003082,-14.511163],[-144.954661,-14.463474],[-144.910715,-14.439548],[-144.888051,-14.418145],[-144.913197,-14.428155],[-144.955881,-14.432061],[-145.003082,-14.442966],[-144.985097,-14.432306],[-144.96231,-14.426202],[-144.917795,-14.422459],[-144.897369,-14.412286],[-144.885081,-14.407973],[-144.879628,-14.411798],[-144.880605,-14.422133],[-144.88329,-14.427423],[-144.90274,-14.442153],[-144.934967,-14.459731],[-144.944732,-14.463311],[-144.954661,-14.469822],[-144.985829,-14.500584],[-145.003082,-14.511163]]],[[[-145.846588,-14.36712],[-145.8426,-14.346612],[-145.860178,-14.344171],[-145.914296,-14.346612],[-145.858388,-14.337335],[-145.835439,-14.342706],[-145.846588,-14.36712]]],[[[-136.738759,-21.317153],[-136.740224,-21.320001],[-136.74234,-21.320082],[-136.746938,-21.316176],[-136.744781,-21.315851],[-136.740956,-21.31699],[-136.738759,-21.317153]]],[[[-139.135365,-20.799737],[-139.141469,-20.803155],[-139.144521,-20.804376],[-139.147857,-20.804946],[-139.135813,-20.799737],[-139.135365,-20.799737]]],[[[-144.106842,-16.723891],[-144.080068,-16.717218],[-144.0631,-16.730727],[-144.054067,-16.749688],[-144.050893,-16.759454],[-144.062815,-16.74863],[-144.075673,-16.730401],[-144.091135,-16.721856],[-144.110707,-16.739679],[-144.111399,-16.735284],[-144.110504,-16.731703],[-144.106842,-16.723891]]]]}},{"type":"Feature","properties":{"code":"988","chefLieu":"98818","nom":"Nouvelle-Calédonie","typeLiaison":"0","zone":"com","latitude":"-21.3019905","longitude":"165.4880773","slug":"nouvelle-caledonie","name_fr":"Nouvelle-Calédonie","departement_count":"1","label_lat":-21.064697,"label_lng":165.084004,"label_source":"natural-earth","area_km2":18892.23,"bbox_min_lng":163.615733,"bbox_min_lat":-22.670668,"bbox_max_lng":171.343765,"bbox_max_lat":-19.623712,"iso_3166_1":"NC"},"geometry":{"type":"MultiPolygon","coordinates":[[[[163.985118,-20.047621],[163.986095,-20.05755],[163.985362,-20.066664],[163.982921,-20.075291],[163.978201,-20.083103],[163.971365,-20.06878],[163.956391,-20.073663],[163.947113,-20.066013],[163.937266,-20.041599],[163.937266,-20.033949],[163.944102,-20.025974],[163.949718,-20.002211],[163.957693,-19.999933],[163.967133,-20.008071],[163.975108,-20.035414],[163.985118,-20.047621]]],[[[167.521007,-22.569594],[167.531505,-22.587091],[167.544688,-22.59824],[167.554698,-22.612237],[167.555186,-22.638442],[167.542979,-22.630141],[167.530935,-22.605564],[167.521007,-22.603692],[167.516124,-22.611261],[167.516612,-22.624119],[167.521007,-22.648696],[167.507335,-22.670668],[167.475841,-22.667087],[167.418712,-22.645278],[167.424001,-22.620294],[167.42449,-22.5617],[167.432302,-22.54225],[167.450206,-22.538018],[167.476899,-22.54339],[167.503429,-22.554946],[167.521007,-22.569594]]],[[[166.801768,-22.398858],[166.814789,-22.395115],[166.82545,-22.395685],[166.834321,-22.401462],[166.843272,-22.41253],[166.843435,-22.424412],[166.840587,-22.431248],[166.835704,-22.432061],[166.828949,-22.425551],[166.8213,-22.43141],[166.815766,-22.434828],[166.801768,-22.439874],[166.801768,-22.445977],[166.820974,-22.448826],[166.818858,-22.455824],[166.808116,-22.462335],[166.801768,-22.463067],[166.794444,-22.460545],[166.780284,-22.457615],[166.770763,-22.450616],[166.77768,-22.436456],[166.785167,-22.424737],[166.786388,-22.415134],[166.789399,-22.406671],[166.801768,-22.398858]]],[[[168.137462,-21.431817],[168.144216,-21.452732],[168.143728,-21.488702],[168.136485,-21.527276],[168.12379,-21.555352],[168.12908,-21.601332],[168.126801,-21.622247],[168.114106,-21.631036],[168.101899,-21.632989],[168.06422,-21.642999],[168.035411,-21.658461],[167.992931,-21.654962],[167.958181,-21.638442],[167.959972,-21.61061],[167.938975,-21.601658],[167.912608,-21.595636],[167.885753,-21.595392],[167.863617,-21.603692],[167.861176,-21.600681],[167.859223,-21.597345],[167.857758,-21.593845],[167.856781,-21.589532],[167.867442,-21.582778],[167.879893,-21.572686],[167.889496,-21.559015],[167.891612,-21.541681],[167.886404,-21.533461],[167.863943,-21.510675],[167.856781,-21.500746],[167.850841,-21.482843],[167.847911,-21.456231],[167.843923,-21.439223],[167.836111,-21.422621],[167.808442,-21.383966],[167.823009,-21.377048],[167.835948,-21.374282],[167.848806,-21.37477],[167.863617,-21.377211],[167.889171,-21.388604],[167.904959,-21.392755],[167.922211,-21.378188],[167.987804,-21.335626],[167.990408,-21.348728],[167.971934,-21.375258],[167.966645,-21.394301],[167.971934,-21.411228],[167.983653,-21.429376],[167.997325,-21.444594],[168.00766,-21.452895],[168.038748,-21.459731],[168.074474,-21.455743],[168.109223,-21.445001],[168.137462,-21.431817]]],[[[166.424978,-20.719903],[166.432953,-20.719008],[166.458507,-20.719903],[166.45338,-20.728936],[166.443533,-20.733494],[166.418142,-20.740411],[166.412608,-20.735121],[166.4074,-20.731541],[166.400645,-20.728936],[166.39088,-20.726739],[166.398448,-20.721938],[166.406423,-20.719659],[166.415212,-20.719008],[166.424978,-20.719903]]],[[[167.432302,-21.027765],[167.444835,-21.036798],[167.459483,-21.050877],[167.464692,-21.063653],[167.431814,-21.074884],[167.425304,-21.089125],[167.425466,-21.127374],[167.42335,-21.147556],[167.417003,-21.160089],[167.406098,-21.169041],[167.390798,-21.178643],[167.373871,-21.171808],[167.351085,-21.171808],[167.331065,-21.164158],[167.322439,-21.13421],[167.314952,-21.129571],[167.298595,-21.127374],[167.282074,-21.123468],[167.274669,-21.113702],[167.27296,-21.096938],[167.267589,-21.091485],[167.176036,-21.082208],[167.146332,-21.073012],[167.120128,-21.051935],[167.096446,-21.027765],[167.093923,-21.020766],[167.092296,-21.011651],[167.08839,-21.003839],[167.067393,-20.996352],[167.061534,-20.986261],[167.062022,-20.973077],[167.068614,-20.959568],[167.028494,-20.925388],[167.020844,-20.911716],[167.082205,-20.916192],[167.102712,-20.911716],[167.121593,-20.901544],[167.133474,-20.890069],[167.151134,-20.863214],[167.181163,-20.829848],[167.190929,-20.809991],[167.185313,-20.788181],[167.172862,-20.781427],[167.120128,-20.760186],[167.044444,-20.768243],[167.042491,-20.758559],[167.047048,-20.737237],[167.058849,-20.715997],[167.079112,-20.706231],[167.113129,-20.701104],[167.120128,-20.702813],[167.126964,-20.708673],[167.134288,-20.711684],[167.143077,-20.712986],[167.154307,-20.713067],[167.164317,-20.710138],[167.171886,-20.702569],[167.176768,-20.69256],[167.178477,-20.682061],[167.212576,-20.672133],[167.287771,-20.711521],[167.30128,-20.713067],[167.308279,-20.73089],[167.300466,-20.748142],[167.287934,-20.765558],[167.281505,-20.784438],[167.282237,-20.796319],[167.288341,-20.822361],[167.30128,-20.849705],[167.297537,-20.862237],[167.284353,-20.882257],[167.281505,-20.894301],[167.284679,-20.901788],[167.292491,-20.905694],[167.302501,-20.909112],[167.312266,-20.914809],[167.32252,-20.923761],[167.331065,-20.929457],[167.3567,-20.938409],[167.368419,-20.939548],[167.378184,-20.93906],[167.385509,-20.941664],[167.390798,-20.952732],[167.394379,-20.957696],[167.400401,-20.96795],[167.40504,-20.972426],[167.393891,-20.989923],[167.390391,-20.999444],[167.390798,-21.007908],[167.399181,-21.01922],[167.409841,-21.023207],[167.421397,-21.024509],[167.432302,-21.027765]]],[[[166.637218,-20.425063],[166.648285,-20.432794],[166.67335,-20.445733],[166.678233,-20.452407],[166.673839,-20.463637],[166.663097,-20.46738],[166.633474,-20.465997],[166.620779,-20.469334],[166.611339,-20.477227],[166.605724,-20.4874],[166.60377,-20.497166],[166.600922,-20.499933],[166.585704,-20.538018],[166.579275,-20.549574],[166.578624,-20.564874],[166.582042,-20.59295],[166.587657,-20.599867],[166.600922,-20.600193],[166.629731,-20.596368],[166.591482,-20.665134],[166.575206,-20.685154],[166.559581,-20.695082],[166.537283,-20.704685],[166.51352,-20.711521],[166.493907,-20.713067],[166.48585,-20.706231],[166.479666,-20.699395],[166.495128,-20.693455],[166.508962,-20.683526],[166.53419,-20.658461],[166.550792,-20.63714],[166.558279,-20.624444],[166.561371,-20.606622],[166.559581,-20.545668],[166.564952,-20.531508],[166.576508,-20.517267],[166.588878,-20.497654],[166.598888,-20.476739],[166.60377,-20.458591],[166.599376,-20.43963],[166.580333,-20.414727],[166.571462,-20.405938],[166.567231,-20.407322],[166.561371,-20.410821],[166.563731,-20.401951],[166.574555,-20.392348],[166.589529,-20.385431],[166.60377,-20.383477],[166.615977,-20.389418],[166.623546,-20.400649],[166.629649,-20.413751],[166.637218,-20.425063]]],[[[167.034434,-22.237481],[167.031749,-22.246677],[167.025564,-22.248142],[167.018321,-22.248468],[167.013438,-22.254815],[167.015798,-22.261163],[167.022146,-22.268243],[167.02711,-22.276462],[167.023936,-22.285577],[167.020518,-22.292169],[167.013438,-22.316339],[167.00587,-22.329767],[167.000743,-22.336684],[166.993419,-22.344334],[166.991547,-22.339532],[166.988536,-22.335056],[166.982677,-22.337579],[166.97755,-22.342462],[166.965587,-22.347263],[166.960785,-22.350763],[166.961925,-22.35589],[166.966156,-22.364679],[166.934581,-22.388442],[166.915701,-22.395603],[166.890961,-22.392022],[166.911632,-22.385024],[166.919688,-22.38006],[166.925304,-22.370864],[166.909841,-22.37127],[166.903087,-22.373305],[166.895274,-22.364923],[166.889822,-22.351983],[166.881602,-22.33766],[166.877452,-22.333673],[166.874278,-22.322035],[166.867931,-22.329278],[166.861827,-22.343032],[166.860037,-22.350518],[166.851817,-22.346449],[166.846528,-22.337091],[166.841807,-22.32586],[166.835785,-22.316339],[166.84018,-22.315118],[166.849457,-22.310154],[166.840343,-22.297947],[166.831391,-22.300877],[166.824718,-22.314223],[166.820974,-22.343032],[166.819184,-22.348077],[166.818858,-22.353611],[166.822276,-22.364679],[166.825043,-22.365981],[166.843272,-22.378351],[166.832286,-22.380792],[166.818533,-22.378595],[166.806651,-22.375177],[166.801768,-22.374688],[166.799083,-22.379815],[166.792735,-22.385512],[166.784841,-22.390069],[166.77768,-22.392022],[166.752615,-22.386651],[166.739268,-22.374282],[166.740571,-22.360447],[166.76002,-22.350518],[166.76002,-22.344334],[166.741954,-22.346124],[166.719981,-22.343845],[166.706065,-22.334731],[166.71225,-22.316339],[166.705577,-22.310154],[166.690603,-22.315118],[166.667491,-22.307224],[166.646495,-22.292739],[166.637218,-22.278741],[166.632823,-22.276951],[166.610037,-22.28631],[166.59962,-22.288995],[166.591645,-22.287205],[166.56658,-22.277114],[166.557953,-22.271905],[166.554454,-22.26214],[166.561209,-22.256524],[166.565684,-22.250665],[166.554535,-22.240655],[166.545584,-22.237563],[166.516287,-22.233575],[166.506196,-22.23447],[166.495128,-22.249119],[166.488292,-22.271417],[166.478363,-22.287205],[166.458507,-22.282159],[166.458263,-22.286228],[166.457774,-22.288018],[166.456065,-22.28867],[166.452322,-22.288995],[166.460134,-22.307712],[166.44988,-22.312433],[166.436697,-22.308038],[166.434744,-22.299249],[166.437673,-22.290623],[166.439301,-22.265232],[166.446056,-22.254815],[166.446056,-22.248142],[166.431407,-22.248956],[166.418142,-22.245701],[166.406749,-22.238377],[166.397634,-22.226821],[166.430024,-22.228123],[166.444102,-22.224379],[166.452322,-22.213962],[166.434255,-22.212986],[166.428233,-22.204278],[166.431814,-22.172296],[166.421886,-22.173028],[166.400238,-22.169692],[166.39088,-22.172296],[166.387543,-22.178155],[166.383311,-22.196384],[166.380544,-22.200291],[166.367931,-22.202081],[166.363048,-22.207127],[166.360118,-22.214532],[166.353282,-22.22381],[166.344005,-22.227472],[166.339366,-22.221368],[166.340994,-22.210626],[166.349864,-22.200291],[166.33961,-22.194431],[166.315115,-22.172296],[166.315115,-22.166111],[166.321544,-22.162774],[166.32488,-22.159112],[166.326834,-22.153497],[166.328136,-22.144952],[166.321951,-22.144952],[166.312022,-22.154718],[166.285899,-22.149347],[166.287771,-22.158624],[166.268728,-22.165785],[166.252126,-22.159926],[166.236176,-22.151788],[166.218761,-22.151788],[166.217947,-22.132745],[166.208832,-22.117771],[166.195323,-22.10768],[166.181326,-22.104099],[166.168956,-22.097589],[166.157481,-22.086684],[166.145274,-22.084568],[166.130138,-22.104099],[166.119314,-22.098077],[166.108897,-22.090427],[166.113536,-22.085219],[166.115896,-22.079848],[166.116547,-22.072686],[166.116466,-22.062433],[166.122732,-22.062433],[166.131114,-22.071466],[166.1421,-22.07586],[166.150401,-22.071954],[166.150645,-22.056248],[166.144542,-22.046563],[166.125011,-22.038507],[166.116466,-22.028416],[166.143728,-22.028578],[166.15504,-22.030694],[166.164317,-22.035089],[166.163341,-22.024591],[166.158946,-22.018324],[166.151215,-22.015395],[166.140391,-22.014744],[166.135265,-22.008559],[166.136892,-21.995538],[166.140961,-21.983575],[166.143809,-21.980564],[166.135753,-21.958266],[166.123057,-21.948826],[166.088552,-21.938897],[166.076427,-21.945896],[166.069998,-21.943048],[166.0713,-21.934828],[166.082286,-21.925226],[166.071788,-21.920505],[166.064464,-21.913018],[166.06072,-21.903253],[166.061209,-21.891209],[166.045584,-21.900649],[166.039887,-21.909926],[166.040782,-21.935479],[166.036143,-21.941583],[166.025564,-21.941502],[166.014008,-21.939386],[166.006602,-21.938897],[166.010427,-21.94378],[166.009613,-21.955824],[166.003184,-21.963962],[165.989513,-21.956313],[165.975108,-21.937677],[165.965994,-21.928888],[165.934906,-21.917739],[165.914317,-21.884942],[165.899913,-21.877537],[165.893077,-21.875746],[165.885509,-21.871352],[165.872813,-21.861017],[165.86671,-21.857843],[165.861583,-21.859633],[165.856212,-21.863214],[165.84962,-21.864435],[165.820567,-21.863946],[165.810883,-21.858575],[165.808604,-21.843357],[165.8296,-21.852146],[165.822927,-21.842218],[165.794932,-21.816664],[165.794932,-21.808852],[165.799164,-21.799574],[165.800304,-21.792087],[165.79127,-21.788751],[165.780772,-21.791111],[165.776622,-21.797133],[165.77711,-21.806085],[165.780772,-21.816664],[165.764008,-21.811212],[165.76059,-21.7999],[165.761974,-21.785089],[165.759532,-21.768813],[165.75115,-21.758722],[165.740733,-21.750258],[165.732921,-21.738946],[165.732921,-21.719822],[165.725352,-21.719822],[165.717296,-21.735528],[165.706879,-21.748305],[165.693858,-21.75742],[165.677745,-21.761407],[165.678559,-21.740899],[165.677501,-21.729425],[165.669932,-21.725274],[165.65089,-21.726739],[165.650238,-21.728936],[165.650645,-21.733657],[165.649425,-21.738458],[165.643403,-21.740899],[165.63795,-21.740167],[165.504568,-21.678155],[165.473888,-21.651788],[165.48585,-21.631036],[165.48585,-21.62363],[165.471528,-21.628513],[165.463145,-21.625909],[165.46461,-21.620538],[165.479015,-21.616876],[165.463145,-21.605645],[165.446544,-21.609308],[165.429861,-21.618585],[165.413422,-21.62363],[165.396007,-21.620538],[165.290782,-21.576755],[165.277029,-21.566176],[165.268809,-21.552667],[165.259532,-21.521173],[165.256847,-21.515069],[165.237966,-21.512953],[165.225597,-21.507094],[165.197765,-21.487074],[165.189708,-21.48504],[165.180675,-21.484796],[165.173513,-21.483005],[165.170584,-21.476495],[165.156993,-21.462172],[165.153819,-21.459731],[165.116547,-21.397719],[165.114757,-21.38836],[165.118012,-21.383396],[165.1185,-21.378839],[165.111664,-21.373142],[165.109141,-21.371026],[165.102224,-21.371189],[165.093272,-21.374444],[165.087087,-21.377618],[165.087901,-21.377211],[165.084483,-21.391371],[165.075694,-21.396091],[165.066661,-21.391209],[165.06186,-21.377211],[165.054373,-21.383396],[165.046641,-21.38836],[165.037852,-21.389418],[165.026622,-21.383966],[165.045421,-21.364679],[165.043142,-21.348077],[165.027517,-21.339125],[165.005544,-21.343032],[165.013927,-21.328058],[165.009288,-21.318048],[164.985525,-21.302016],[164.976573,-21.315525],[164.979666,-21.336602],[164.971934,-21.349867],[164.961192,-21.356052],[164.951427,-21.353774],[164.94337,-21.346287],[164.937755,-21.335626],[164.941742,-21.327732],[164.942393,-21.319106],[164.945649,-21.310479],[164.951427,-21.302016],[164.943858,-21.29339],[164.936778,-21.291274],[164.92921,-21.290216],[164.920421,-21.285089],[164.914806,-21.278741],[164.90797,-21.267348],[164.834158,-21.183282],[164.829275,-21.169529],[164.82781,-21.148126],[164.828461,-21.13242],[164.827159,-21.114679],[164.819184,-21.104099],[164.800059,-21.110284],[164.80128,-21.097263],[164.802908,-21.094171],[164.807384,-21.089776],[164.807384,-21.082289],[164.800792,-21.082208],[164.796072,-21.080662],[164.786388,-21.076267],[164.792247,-21.068536],[164.791026,-21.064386],[164.783946,-21.064386],[164.772716,-21.069431],[164.770274,-21.080987],[164.758962,-21.082452],[164.749766,-21.074802],[164.745942,-21.059177],[164.739594,-21.058364],[164.727306,-21.060235],[164.719249,-21.065851],[164.725434,-21.076267],[164.719005,-21.083429],[164.711762,-21.089776],[164.69337,-21.042901],[164.680675,-21.023696],[164.664073,-21.014093],[164.683279,-21.001153],[164.674571,-20.992608],[164.653575,-20.98447],[164.636729,-20.972426],[164.652517,-20.971124],[164.660818,-20.964776],[164.661876,-20.955662],[164.656586,-20.945896],[164.644216,-20.939142],[164.631358,-20.937758],[164.622813,-20.933526],[164.622406,-20.917901],[164.616222,-20.917901],[164.600597,-20.927667],[164.584972,-20.920587],[164.561046,-20.898045],[164.550548,-20.895278],[164.53004,-20.894708],[164.519379,-20.890558],[164.515147,-20.885349],[164.502615,-20.863214],[164.480317,-20.859145],[164.462413,-20.848565],[164.418793,-20.806248],[164.388927,-20.787367],[164.375499,-20.774021],[164.365571,-20.758071],[164.372081,-20.757257],[164.386892,-20.759698],[164.40268,-20.754083],[164.410411,-20.738458],[164.404307,-20.725356],[164.389659,-20.716404],[164.372081,-20.713067],[164.357188,-20.702325],[164.335134,-20.65545],[164.316742,-20.644789],[164.286632,-20.57586],[164.281016,-20.579522],[164.276378,-20.580499],[164.271739,-20.58115],[164.266124,-20.582696],[164.256033,-20.565037],[164.192556,-20.525811],[164.177419,-20.504002],[164.165863,-20.463067],[164.163748,-20.448989],[164.158702,-20.43255],[164.146983,-20.425063],[164.133474,-20.420099],[164.123383,-20.410821],[164.118663,-20.390313],[164.130138,-20.388116],[164.156993,-20.397149],[164.166515,-20.386651],[164.170421,-20.369724],[164.170584,-20.339125],[164.166515,-20.332127],[164.156261,-20.319024],[164.143809,-20.306573],[164.132498,-20.300958],[164.08546,-20.298761],[164.073741,-20.294122],[164.080414,-20.280938],[164.081228,-20.267836],[164.07488,-20.261163],[164.06072,-20.266778],[164.064952,-20.276788],[164.059337,-20.288018],[164.04949,-20.297133],[164.040212,-20.300958],[164.025401,-20.297052],[164.020763,-20.287774],[164.018077,-20.278497],[164.009532,-20.274184],[163.994802,-20.264255],[163.99822,-20.244561],[164.016612,-20.231052],[164.04713,-20.239435],[164.056407,-20.227634],[164.052501,-20.215509],[164.033458,-20.192315],[164.045177,-20.187595],[164.052501,-20.17783],[164.053722,-20.164972],[164.04713,-20.151462],[164.032237,-20.140313],[164.020274,-20.142348],[164.00766,-20.148858],[163.991954,-20.151462],[163.991954,-20.143813],[163.997081,-20.139825],[164.000336,-20.135349],[164.005544,-20.123468],[163.991059,-20.11891],[163.986013,-20.109633],[163.987153,-20.097263],[163.991954,-20.083103],[163.999685,-20.084161],[164.01352,-20.083103],[164.032237,-20.093845],[164.051768,-20.109308],[164.067393,-20.126072],[164.077403,-20.149835],[164.086762,-20.15545],[164.109141,-20.164972],[164.182953,-20.247328],[164.197927,-20.260512],[164.244314,-20.285333],[164.264334,-20.28867],[164.286632,-20.28102],[164.292817,-20.28102],[164.305919,-20.30877],[164.31658,-20.319106],[164.334483,-20.321466],[164.32545,-20.309177],[164.310883,-20.27516],[164.304373,-20.242771],[164.306488,-20.23504],[164.315766,-20.234796],[164.495616,-20.300226],[164.527517,-20.326593],[164.580821,-20.390883],[164.595225,-20.403578],[164.615245,-20.417087],[164.636241,-20.427504],[164.653494,-20.431817],[164.684581,-20.458591],[164.694835,-20.463067],[164.725434,-20.472833],[164.739757,-20.485528],[164.767751,-20.520766],[164.783214,-20.52809],[164.791759,-20.535089],[164.82781,-20.582696],[164.879649,-20.62656],[164.889415,-20.627374],[164.91977,-20.645115],[164.935232,-20.659112],[164.930349,-20.672133],[164.947927,-20.683689],[164.988536,-20.685317],[165.005544,-20.699395],[165.024425,-20.705743],[165.061534,-20.734063],[165.167166,-20.754083],[165.170177,-20.756036],[165.178233,-20.765313],[165.184093,-20.768243],[165.187511,-20.767022],[165.192556,-20.763604],[165.198578,-20.760512],[165.205251,-20.760186],[165.21754,-20.764418],[165.222016,-20.767999],[165.225108,-20.772882],[165.232677,-20.780694],[165.256847,-20.800063],[165.264415,-20.813246],[165.259939,-20.828546],[165.27003,-20.869561],[165.280447,-20.883884],[165.295584,-20.89422],[165.311046,-20.902602],[165.323253,-20.912774],[165.328298,-20.928399],[165.336681,-20.931573],[165.389659,-20.938409],[165.407725,-20.943943],[165.413097,-20.949151],[165.408865,-20.982517],[165.402517,-21.00506],[165.399913,-21.011],[165.395518,-21.018243],[165.397146,-21.024835],[165.401134,-21.031345],[165.403331,-21.038263],[165.406749,-21.055434],[165.41505,-21.066339],[165.44809,-21.089532],[165.476248,-21.103774],[165.489268,-21.113702],[165.502208,-21.12713],[165.509776,-21.129978],[165.535655,-21.131524],[165.542979,-21.134698],[165.544932,-21.141209],[165.541026,-21.151951],[165.546886,-21.149672],[165.54949,-21.149184],[165.55128,-21.148126],[165.554861,-21.144464],[165.58546,-21.16839],[165.598643,-21.181736],[165.60255,-21.192153],[165.607758,-21.195408],[165.610525,-21.198337],[165.615408,-21.206476],[165.598643,-21.206231],[165.583263,-21.202325],[165.568858,-21.195489],[165.554861,-21.18613],[165.559255,-21.195571],[165.568614,-21.206964],[165.580577,-21.216241],[165.592296,-21.220147],[165.60255,-21.226495],[165.610118,-21.241143],[165.616466,-21.257257],[165.623057,-21.267999],[165.646251,-21.277602],[165.706554,-21.292169],[165.725352,-21.309503],[165.754405,-21.302341],[165.781261,-21.316176],[165.801117,-21.340265],[165.808604,-21.363539],[165.826182,-21.359633],[165.836681,-21.402032],[165.856293,-21.418715],[165.845876,-21.398858],[165.8449,-21.391371],[165.84962,-21.383966],[165.858735,-21.378839],[165.868175,-21.379164],[165.876801,-21.385431],[165.883637,-21.397719],[165.889171,-21.388849],[165.890391,-21.378025],[165.886404,-21.366795],[165.87615,-21.356703],[165.894054,-21.361098],[165.908376,-21.378025],[165.943126,-21.438735],[165.94988,-21.455743],[165.945323,-21.464288],[165.924083,-21.459731],[165.931326,-21.470147],[165.972341,-21.493829],[165.966482,-21.503025],[165.974457,-21.504002],[165.986664,-21.500746],[165.992931,-21.497247],[165.990408,-21.48447],[165.984548,-21.47503],[165.977712,-21.46738],[165.972341,-21.459731],[165.964041,-21.435805],[165.961925,-21.417413],[165.969412,-21.410414],[165.989513,-21.421563],[166.020274,-21.452895],[166.03061,-21.455662],[166.055431,-21.458591],[166.064626,-21.463149],[166.066742,-21.469903],[166.059744,-21.473077],[166.051036,-21.475356],[166.048188,-21.479669],[166.052501,-21.483982],[166.059255,-21.485935],[166.068044,-21.487074],[166.070486,-21.497654],[166.072276,-21.516209],[166.07488,-21.528009],[166.097992,-21.517348],[166.116466,-21.517267],[166.133149,-21.525974],[166.184744,-21.569594],[166.190929,-21.572686],[166.204112,-21.576104],[166.208832,-21.579522],[166.218761,-21.596938],[166.253917,-21.618748],[166.291026,-21.635431],[166.370372,-21.658949],[166.370372,-21.665216],[166.342459,-21.665216],[166.342459,-21.672052],[166.34962,-21.676528],[166.351817,-21.682306],[166.353038,-21.688246],[166.3567,-21.693129],[166.363292,-21.695977],[166.376964,-21.697035],[166.411306,-21.705499],[166.425548,-21.712335],[166.437022,-21.731541],[166.475841,-21.758396],[166.480235,-21.765395],[166.483653,-21.783461],[166.489757,-21.792169],[166.495779,-21.796075],[166.513682,-21.802992],[166.506196,-21.809259],[166.529145,-21.827895],[166.573416,-21.874933],[166.59254,-21.884373],[166.610606,-21.897638],[166.637462,-21.923435],[166.661388,-21.93963],[166.671235,-21.925226],[166.706065,-21.948012],[166.719086,-21.952569],[166.719086,-21.960056],[166.711436,-21.964939],[166.703298,-21.968683],[166.694509,-21.971368],[166.685069,-21.973077],[166.685069,-21.980564],[166.693207,-21.984063],[166.722504,-21.980564],[166.735525,-21.983168],[166.746104,-21.988051],[166.754242,-21.990818],[166.76002,-21.986749],[166.767345,-22.004815],[166.778331,-22.014581],[166.7942,-22.019138],[166.81544,-22.02158],[166.873709,-22.035089],[166.88795,-22.042576],[166.938813,-22.079848],[166.948253,-22.092055],[166.959321,-22.110935],[166.960785,-22.119236],[166.959321,-22.144952],[166.955251,-22.150649],[166.948253,-22.15781],[166.948009,-22.16367],[166.962738,-22.166111],[166.971528,-22.17018],[166.979747,-22.180108],[166.993419,-22.200291],[167.028819,-22.226821],[167.034434,-22.237481]]],[[[164.22462,-20.137628],[164.240245,-20.158298],[164.221039,-20.153497],[164.192638,-20.139093],[164.1692,-20.123305],[164.164317,-20.105076],[164.163748,-20.061944],[164.170584,-20.061944],[164.215017,-20.117852],[164.22462,-20.137628]]],[[[163.682791,-19.739841],[163.693858,-19.757501],[163.696137,-19.765069],[163.669688,-19.787693],[163.639985,-19.723728],[163.636078,-19.701593],[163.637869,-19.660577],[163.632335,-19.645929],[163.615733,-19.636163],[163.621837,-19.623712],[163.63795,-19.631768],[163.649669,-19.646254],[163.670177,-19.693292],[163.677094,-19.725518],[163.682791,-19.739841]]],[[[171.340605,-22.344761],[171.343765,-22.346342],[171.341922,-22.349239],[171.339025,-22.347658],[171.340605,-22.344761]]]]}},{"type":"Feature","properties":{"code":"989","chefLieu":"98901","nom":"Île de Clipperton","typeLiaison":"0","zone":"com","latitude":"10.3021287","longitude":"-109.217835","slug":"ile-de-clipperton","name_fr":"Île de Clipperton","departement_count":"1","label_lat":10.2973,"label_lng":-109.222,"label_source":"natural-earth","area_km2":5.022,"bbox_min_lng":-109.234242,"bbox_min_lat":10.281562,"bbox_max_lng":-109.210357,"bbox_max_lat":10.311021,"iso_3166_1":null},"geometry":{"type":"Polygon","coordinates":[[[-109.212026,10.30268],[-109.210357,10.288723],[-109.218577,10.281562],[-109.228017,10.292141],[-109.234242,10.307929],[-109.225942,10.311021],[-109.212026,10.30268]]]}}]}